#cP2023  5 12  0  0  0.00000000      96 ORBIT IGS20 HLM  IGS
## 2261 432000.00000000   900.00000000 60076 0.0000000000000
+   32   G01G02G03G04G05G06G07G08G09G10G11G12G13G14G15G16G17
+        G18G19G20G21G22G23G24G25G26G27G28G29G30G31G32  0  0
+          0  0  0  0  0  0  0  0  0  0  0  0  0  0  0  0  0
+          0  0  0  0  0  0  0  0  0  0  0  0  0  0  0  0  0
+          0  0  0  0  0  0  0  0  0  0  0  0  0  0  0  0  0
++         2  2  2  2  2  2  2  2  2  2  2  2  2  2  2  2  2
++         2  2  2  2  2  2  2  2  2  2  2  2  2  2  2  0  0
++         0  0  0  0  0  0  0  0  0  0  0  0  0  0  0  0  0
++         0  0  0  0  0  0  0  0  0  0  0  0  0  0  0  0  0
++         0  0  0  0  0  0  0  0  0  0  0  0  0  0  0  0  0
%c G  cc GPS ccc cccc cccc cccc cccc ccccc ccccc ccccc ccccc
%c cc cc ccc ccc cccc cccc cccc cccc ccccc ccccc ccccc ccccc
%f  1.2500000  1.025000000  0.00000000000  0.000000000000000
%f  0.0000000  0.000000000  0.00000000000  0.000000000000000
%i    0    0    0    0      0      0      0      0         0
%i    0    0    0    0      0      0      0      0         0
/* RAPID ORBIT COMBINATION FROM WEIGHTED AVERAGE OF:        
/* cod emr esa gfz grg jpl ngs sio usn whu                  
/* REFERENCED TO IGS TIME (IGST) AND TO WEIGHTED MEAN POLE: 
/* PCV:IGS20_2233 OL/AL:FES2014b NONE     Y  ORB:CMB CLK:CMB
*  2023  5 12 12 45  0.00000000
PG01  12639.716831 -21376.199405  -9234.036772    185.915275  5  6  5  89       
PG02  18418.491637  -1219.810636  19634.471850   -596.979942  7  5  5  92       
PG03   5223.667374 -14003.735271 -22080.245671   -305.469255  4  3  3  76       
PG04   1608.512974 -24143.453669 -10807.910130     39.534676  5  7  5  80       
PG05 -21049.726175   6316.872649  14825.489048   -126.905533  5  6  6  98       
PG06 -16368.878928  -2702.300336 -20705.853005    588.095590  7  7  6  97       
PG07  -1198.597689 -18571.539746  19223.267388    180.072758  4  3  6 104       
PG08   9277.596833 -15439.857670  19313.494629   -122.062680  4  7  5  96       
PG09  -7115.443892 -25535.003352  -1301.199146   -160.516165  6  7  4  99       
PG10  22673.680436  11394.604263   8541.779544    -36.612316  3  4  6  88       
PG11 -21881.107566  10006.422635 -11202.491678   -194.149937  9  5  7 109       
PG12  -9066.737164  12840.687184 -21678.046637   -375.099067  6  4  6  90       
PG13 -13616.377769   7686.007463  21264.466958    518.866939  4  2  4  96       
PG14 -20355.139538 -13523.546878  10595.100030     54.343600  7  6  7 109       
PG15  -7272.608840  17113.435941  18413.761633     38.849898  4  5  4  82       
PG16  23511.982541  -1100.201559  12429.938418   -501.659482  9  5  7  81       
PG17 -13011.068028 -19171.947126 -12461.776669    714.500934  6  2  4  84       
PG18   3453.550520  16376.587404  20583.920569   -263.113972  3  4  6  95       
PG19 -15157.467715 -11345.352623 -18974.510760    315.875661  6  2  6  69       
PG20 -25486.197600   2877.195628   6537.101588    433.994647  8  5  6  97       
PG21  17004.786268 -19768.024791   1237.405233    153.858333  7  2     91       
PG22  15570.254420   7733.029615 -19675.769867    480.027879  5  6  2  92       
PG23  12980.113620  15062.687772  17688.346800     23.598565  7  5  4  83       
PG24 -13765.498561  22122.282935  -4165.619181   -185.932699  5  4  6 104       
PG25   4205.014228  16240.666082 -20961.617743    442.273261  7  2  6  73       
PG26  26389.793744   4343.438067    304.161367    240.884442  8  5  6  55       
PG27  14589.046369  -3370.534238  21694.644750     39.113019  4  4  3  89       
PG28  15623.492728   4515.035793 -21021.791973     76.814314  4  5  5  86       
PG29   2660.207777  26064.938332  -4124.101623   -599.135673  7  3  3  90       
PG30 -11442.024850 -10913.559013  21451.165239   -517.613356  4  4  3 110       
PG31  20964.372342  -4927.826336 -16010.029309   -215.952504  4  5  5  76       
PG32  15353.707635  16322.393564 -14230.764462   -474.643963  5  5  4  54       
*  2023  5 12 13  0  0.00000000
PG01  13359.375867 -21887.935822  -6490.277616    185.912703  5  6  5  91       
PG02  17161.980109    591.689056  20819.697301   -596.976393  6  5  5  96       
PG03   7637.295324 -13465.357438 -21696.245444   -305.459465  3  3  4  83       
PG04   2201.557880 -22879.850814 -13196.426922     39.543419  5  7  5  82       
PG05 -22590.564202   5880.424281  12607.015391   -126.906784  6  5  6  89       
PG06 -14772.427165  -4524.053774 -21559.563090    588.095373  7  8  5 100       
PG07    294.151909 -19984.301845  17704.290262    180.064466  4  3  6 107       
PG08  10167.880217 -13315.526599  20445.300898   -122.063312  4  7  5  94       
PG09  -6758.816126 -25338.979037  -4126.838421   -160.508741  7  7  4 113       
PG10  21573.840729  11327.719317  11114.777535    -36.613348  3  3  6  89       
PG11 -21025.929258   8856.961295 -13561.524514   -194.162342  9  5  8 101       
PG12 -11343.190365  12135.031882 -20985.548500   -375.103402  6  4  6  94       
PG13 -14104.484373   5238.077188  21700.444734    518.871985  4  2  4  86       
PG14 -18994.752180 -13432.234769  12960.914288     54.355161  7  6  7 115       
PG15  -8426.660682  15140.006171  19607.069168     38.852734  3  5  4  98       
PG16  24712.240119   -542.997971   9997.179482   -501.656646  9  5  6  92       
PG17 -13153.696107 -20524.853880  -9987.345635    714.502149  5  2  4  98       
PG18   1824.964114  17987.710310  19401.051393   -263.128273  4  3  5  90       
PG19 -15478.837206 -13346.648857 -17348.565244    315.880223  6  2  6  90       
PG20 -26064.769433   2558.255174   3777.606624    433.992963  8  5  6  97       
PG21  17103.463636 -19375.751512   4124.473678    153.857994  7  3     52       
PG22  15977.567805   9956.982179 -18348.883050    480.033637  5  6  1  89       
PG23  10889.754645  14800.063232  19238.985647     23.601340  7  5  4  86       
PG24 -14223.142879  22133.855661  -1363.722512   -185.945229  5  4  6 101       
PG25   1873.093744  15830.419269 -21589.797026    442.275726  6  4  7  81       
PG26  26237.928676   4628.083860  -2474.623807    240.883969  8  5  6  55       
PG27  15374.950010   -979.624626  21429.537024     39.105820  4  5  3  93       
PG28  14103.884444   6416.089387 -21595.253288     76.817631  4  5  5  90       
PG29   2307.240372  25507.007717  -6922.960819   -599.137047  7  2  3  87       
PG30  -9781.834953 -12689.976993  21269.658236   -517.611475  5  4  2 109       
PG31  19777.713553  -3450.714166 -17786.306904   -215.953252  5  5  6  87       
PG32  15651.778923  17825.114526 -11968.272319   -474.652312  5  5  4  80       
*  2023  5 12 13 15  0.00000000
PG01  13849.832194 -22191.532729  -3633.472358    185.910133  5  6  5  76       
PG02  15945.753618   2558.568523  21663.406264   -596.972991  6  6  5  88       
PG03  10014.910244 -13070.240365 -20942.796421   -305.449682  3  3  4  85       
PG04   2945.825981 -21405.840641 -15356.404767     39.552169  6  7  6  89       
PG05 -23888.148529   5554.144197  10170.822911   -126.908498  6  5  7 101       
PG06 -13233.134529  -6493.096282 -22040.776510    588.095115  6  8  6  88       
PG07   1601.955816 -21328.133503  15885.432357    180.056463  5  3  6 104       
PG08  11206.648161 -11142.516709  21220.217758   -122.064171  4  7  4  88       
PG09  -6270.929836 -24870.194868  -6881.357114   -160.501246  7  7  5 114       
PG10  20196.807675  11281.970416  13501.196091    -36.615223  3  2  6  86       
PG11 -20064.634538   7473.282163 -15686.674603   -194.174721  9  5  8  91       
PG12 -13560.774140  11572.623317 -19940.125236   -375.107617  6  5  6  89       
PG13 -14727.547246   2793.874613  21756.480429    518.876908  5  2  4  95       
PG14 -17380.936055 -13364.569276  15105.435124     54.366677  6  6  7 108       
PG15  -9727.586894  13120.288724  20447.563703     38.856074  3  5  4  83       
PG16  25662.311928   -120.177838   7394.309404   -501.653743  9  5  6  71       
PG17 -13279.299235 -21586.044333  -7336.751196    714.503934  5  2  4  89       
PG18    382.320002  19566.741605  17882.811867   -263.142536  5  3  4  93       
PG19 -15856.553746 -15135.784250 -15432.276105    315.884904  5  3  6  79       
PG20 -26341.683027   2261.968474    952.365969    433.990675  8  5  6  97       
PG21  17036.605003 -18719.930819   6937.421384    153.858075  7  4     63       
PG22  16449.470892  11989.120143 -16696.381227    480.039204  5  6  2  81       
PG23   8631.331570  14633.193691  20460.188147     23.604132  6  6  4  91       
PG24 -14505.515307  21898.472724   1462.188260   -185.957766  5  4  6  95       
PG25   -528.417205  15534.989856 -21857.832396    442.278188  6  4  7  73       
PG26  25792.876842   4893.872066  -5211.756515    240.883495  8  4  5  67       
PG27  16264.964972   1314.162346  20788.649001     39.098532  3  5  2  84       
PG28  12659.741787   8429.232938 -21797.915950     76.820957  4  5  4  70       
PG29   1832.761393  24672.164988  -9602.270157   -599.138562  6  2  3  93       
PG30  -8233.223447 -14514.937882  20725.001932   -517.609496  5  5  1 116       
PG31  18552.641832  -1772.221117 -19265.352830   -215.953780  5  5  6  79       
PG32  15927.694245  19059.997284  -9500.005061   -474.660715  5  5  4  79       
EOF
